{"type":"FeatureCollection","features":[{"type":"Feature","properties":{"batalhao":"1º BPM","numero":1,"sede":"Russas","ancora":"Russas","tipo_ancora":"município-sede","localidades_referencia":["Russas","Limoeiro do Norte"],"municipios_cobertos":["Jaguaruana","Limoeiro do Norte","Quixeré","Russas","São João do Jaguaribe","Tabuleiro do Norte"],"quantidade_municipios":6,"crpm":"8º CRPM","efetivo":294,"companhias":2,"exoneracoes":0,"demissoes":6,"requeridas_2025":14,"requeridas_2026":3,"requeridas":17,"movimentacoes":-39,"situacao":-62,"perdas":62,"reestruturacao":0,"necessidade":62},"geometry":{"type":"Point","coordinates":[-38.207696,-4.83746]}},{"type":"Feature","properties":{"batalhao":"2º BPM","numero":2,"sede":"Juazeiro do Norte","ancora":"Juazeiro do Norte","tipo_ancora":"município-sede","localidades_referencia":["Juazeiro do Norte","Barbalha"],"municipios_cobertos":["Aurora","Barbalha","Caririacu","Crato","Farias Brito","Jardim","Juazeiro do Norte","Missão Velha","Nova Olinda","Santana do Cariri"],"quantidade_municipios":10,"crpm":"4º CRPM","efetivo":587,"companhias":4,"exoneracoes":4,"demissoes":3,"requeridas_2025":25,"requeridas_2026":10,"requeridas":35,"movimentacoes":-52,"situacao":-94,"perdas":94,"reestruturacao":0,"necessidade":94},"geometry":{"type":"Point","coordinates":[-39.282473,-7.177547]}},{"type":"Feature","properties":{"batalhao":"3º BPM","numero":3,"sede":"Sobral","ancora":"Sobral","tipo_ancora":"município-sede","localidades_referencia":["Sobral","Forquilha"],"municipios_cobertos":["Alcântaras","Cariré","Coreaú","Forquilha","Frecheirinha","Graca","Groaíras","Massapê","Meruoca","Mucambo","Pacujá","Santana do Acaraú","Senador Sá","Sobral"],"quantidade_municipios":14,"crpm":"3º CRPM","efetivo":406,"companhias":4,"exoneracoes":2,"demissoes":3,"requeridas_2025":13,"requeridas_2026":5,"requeridas":18,"movimentacoes":-64,"situacao":-87,"perdas":87,"reestruturacao":0,"necessidade":87},"geometry":{"type":"Point","coordinates":[-40.043798,-3.856465]}},{"type":"Feature","properties":{"batalhao":"4º BPM","numero":4,"sede":"Canindé","ancora":"Canindé","tipo_ancora":"município-sede","localidades_referencia":["Canindé","Boa Viagem"],"municipios_cobertos":["Boa Viagem","Canindé","Caridade","Itatira","Madalena","Paramoti"],"quantidade_municipios":6,"crpm":"7º CRPM","efetivo":240,"companhias":2,"exoneracoes":3,"demissoes":5,"requeridas_2025":17,"requeridas_2026":7,"requeridas":24,"movimentacoes":-14,"situacao":-46,"perdas":46,"reestruturacao":0,"necessidade":46},"geometry":{"type":"Point","coordinates":[-39.423691,-4.403065]}},{"type":"Feature","properties":{"batalhao":"5º BPM","numero":5,"sede":"Fortaleza","ancora":"Centro","tipo_ancora":"bairro oficial de Fortaleza","localidades_referencia":["Centro","Carlito Pamplona"],"municipios_cobertos":["Fortaleza"],"quantidade_municipios":1,"crpm":"1º CRPM","efetivo":385,"companhias":3,"exoneracoes":1,"demissoes":3,"requeridas_2025":11,"requeridas_2026":3,"requeridas":14,"movimentacoes":0,"situacao":-18,"perdas":18,"reestruturacao":0,"necessidade":18},"geometry":{"type":"Point","coordinates":[-38.527064,-3.727776]}},{"type":"Feature","properties":{"batalhao":"6º BPM","numero":6,"sede":"Fortaleza","ancora":"Parangaba","tipo_ancora":"bairro oficial de Fortaleza","localidades_referencia":["Parangaba","Bairro de Fátima"],"municipios_cobertos":["Fortaleza"],"quantidade_municipios":1,"crpm":"1º CRPM","efetivo":340,"companhias":3,"exoneracoes":1,"demissoes":13,"requeridas_2025":13,"requeridas_2026":2,"requeridas":15,"movimentacoes":-3,"situacao":-32,"perdas":32,"reestruturacao":0,"necessidade":32},"geometry":{"type":"Point","coordinates":[-38.565114,-3.777246]}},{"type":"Feature","properties":{"batalhao":"7º BPM","numero":7,"sede":"Crateús","ancora":"Crateús","tipo_ancora":"município-sede","localidades_referencia":["Crateús","Nova Russas"],"municipios_cobertos":["Ararendá","Catunda","Crateús","Hidrolândia","Independência","Ipaporanga","Ipu","Ipueiras","Monsenhor Tabosa","Nova Russas","Novo Oriente","Pires Ferreira","Poranga","Reriutaba","Santa Quitéria","Tamboril","Varjota"],"quantidade_municipios":17,"crpm":"3º CRPM","efetivo":312,"companhias":3,"exoneracoes":0,"demissoes":3,"requeridas_2025":9,"requeridas_2026":6,"requeridas":15,"movimentacoes":10,"situacao":-8,"perdas":8,"reestruturacao":0,"necessidade":8},"geometry":{"type":"Point","coordinates":[-40.667462,-5.208947]}},{"type":"Feature","properties":{"batalhao":"8º BPM","numero":8,"sede":"Fortaleza","ancora":"Aldeota","tipo_ancora":"bairro oficial de Fortaleza","localidades_referencia":["Aldeota","Vicente Pinzón"],"municipios_cobertos":["Fortaleza"],"quantidade_municipios":1,"crpm":"5º CRPM","efetivo":321,"companhias":2,"exoneracoes":3,"demissoes":6,"requeridas_2025":3,"requeridas_2026":4,"requeridas":7,"movimentacoes":-22,"situacao":-38,"perdas":38,"reestruturacao":0,"necessidade":38},"geometry":{"type":"Point","coordinates":[-38.502828,-3.737516]}},{"type":"Feature","properties":{"batalhao":"9º BPM","numero":9,"sede":"Quixadá","ancora":"Quixadá","tipo_ancora":"município-sede","localidades_referencia":["Quixadá","Senador Pompeu"],"municipios_cobertos":["Banabuiú","Choró","Dep. Irapuan Pinheiro","Ibaretama","Ibicuitinga","Jaguaretama","Milhã","Morada Nova","Pedra Branca","Quixadá","Quixeramobim","Senador Pompeu","Solonópole"],"quantidade_municipios":13,"crpm":"8º CRPM","efetivo":325,"companhias":4,"exoneracoes":0,"demissoes":7,"requeridas_2025":13,"requeridas_2026":4,"requeridas":17,"movimentacoes":-10,"situacao":-34,"perdas":34,"reestruturacao":0,"necessidade":34},"geometry":{"type":"Point","coordinates":[-39.029229,-4.916345]}},{"type":"Feature","properties":{"batalhao":"10º BPM","numero":10,"sede":"Iguatu","ancora":"Iguatu","tipo_ancora":"município-sede","localidades_referencia":["Iguatu","Jucás"],"municipios_cobertos":["Acopiara","Cariús","Iguatu","Jucás","Quixelô","Saboeiro","Tarrafas"],"quantidade_municipios":7,"crpm":"4º CRPM","efetivo":195,"companhias":2,"exoneracoes":0,"demissoes":4,"requeridas_2025":10,"requeridas_2026":4,"requeridas":14,"movimentacoes":-60,"situacao":-78,"perdas":78,"reestruturacao":0,"necessidade":78},"geometry":{"type":"Point","coordinates":[-39.282655,-6.352497]}},{"type":"Feature","properties":{"batalhao":"11º BPM","numero":11,"sede":"Itapipoca","ancora":"Itapipoca","tipo_ancora":"município-sede","localidades_referencia":["Itapipoca","Pentecoste"],"municipios_cobertos":["Acaraú","Amontada","Apuiarés","Bela Cruz","Cruz","General Sampaio","Iraucuba","Itapajé","Itapipoca","Itarema","Jijoca de Jericoacoara","Marco","Miraíma","Morrinhos","Pentecoste","Tejucuoca","Tururu","Umirim","Uruburetama"],"quantidade_municipios":19,"crpm":"7º CRPM","efetivo":413,"companhias":3,"exoneracoes":0,"demissoes":4,"requeridas_2025":23,"requeridas_2026":10,"requeridas":33,"movimentacoes":-37,"situacao":-74,"perdas":74,"reestruturacao":0,"necessidade":74},"geometry":{"type":"Point","coordinates":[-39.615439,-3.366387]}},{"type":"Feature","properties":{"batalhao":"12º BPM","numero":12,"sede":"Caucaia","ancora":"Centro","tipo_ancora":"bairro de referência em Caucaia","localidades_referencia":["Centro","Cumbuco"],"municipios_cobertos":["Caucaia"],"quantidade_municipios":1,"crpm":"2º CRPM","efetivo":362,"companhias":2,"exoneracoes":9,"demissoes":8,"requeridas_2025":4,"requeridas_2026":1,"requeridas":5,"movimentacoes":-40,"situacao":-62,"perdas":62,"reestruturacao":0,"necessidade":62},"geometry":{"type":"Point","coordinates":[-38.6566,-3.7362]}},{"type":"Feature","properties":{"batalhao":"13º BPM","numero":13,"sede":"Tauá","ancora":"Tauá","tipo_ancora":"município-sede","localidades_referencia":["Tauá","Parambu"],"municipios_cobertos":["Aiuaba","Arneiroz","Catarina","Mombaca","Parambu","Piquet Carneiro","Quiterianópolis","Tauá"],"quantidade_municipios":8,"crpm":"4º CRPM","efetivo":154,"companhias":3,"exoneracoes":1,"demissoes":3,"requeridas_2025":5,"requeridas_2026":1,"requeridas":6,"movimentacoes":10,"situacao":0,"perdas":48,"reestruturacao":0,"necessidade":48},"geometry":{"type":"Point","coordinates":[-40.316786,-5.877434]}},{"type":"Feature","properties":{"batalhao":"14º BPM","numero":14,"sede":"Maracanaú","ancora":"Maracanaú","tipo_ancora":"município-sede","localidades_referencia":["Maracanaú"],"municipios_cobertos":["Maracanaú"],"quantidade_municipios":1,"crpm":"6º CRPM","efetivo":357,"companhias":2,"exoneracoes":1,"demissoes":9,"requeridas_2025":8,"requeridas_2026":0,"requeridas":8,"movimentacoes":-36,"situacao":-54,"perdas":54,"reestruturacao":0,"necessidade":54},"geometry":{"type":"Point","coordinates":[-38.631372,-3.885793]}},{"type":"Feature","properties":{"batalhao":"15º BPM","numero":15,"sede":"Eusébio","ancora":"Eusébio","tipo_ancora":"município-sede","localidades_referencia":["Eusébio","Cascavel"],"municipios_cobertos":["Aquiraz","Cascavel","Eusébio","Pindoretama"],"quantidade_municipios":4,"crpm":"6º CRPM","efetivo":249,"companhias":2,"exoneracoes":1,"demissoes":2,"requeridas_2025":5,"requeridas_2026":4,"requeridas":9,"movimentacoes":2,"situacao":-10,"perdas":10,"reestruturacao":0,"necessidade":10},"geometry":{"type":"Point","coordinates":[-38.45083,-3.869142]}},{"type":"Feature","properties":{"batalhao":"16º BPM","numero":16,"sede":"Fortaleza","ancora":"Messejana","tipo_ancora":"bairro oficial de Fortaleza","localidades_referencia":["Messejana","Jangurussu"],"municipios_cobertos":["Fortaleza"],"quantidade_municipios":1,"crpm":"5º CRPM","efetivo":403,"companhias":3,"exoneracoes":2,"demissoes":5,"requeridas_2025":6,"requeridas_2026":4,"requeridas":10,"movimentacoes":-41,"situacao":-58,"perdas":58,"reestruturacao":0,"necessidade":58},"geometry":{"type":"Point","coordinates":[-38.493057,-3.826699]}},{"type":"Feature","properties":{"batalhao":"17º BPM","numero":17,"sede":"Fortaleza","ancora":"Conjunto Ceará I","tipo_ancora":"bairro oficial de Fortaleza","localidades_referencia":["Conjunto Ceará","Bom Jardim"],"municipios_cobertos":["Fortaleza"],"quantidade_municipios":1,"crpm":"1º CRPM","efetivo":381,"companhias":2,"exoneracoes":2,"demissoes":12,"requeridas_2025":7,"requeridas_2026":1,"requeridas":8,"movimentacoes":-4,"situacao":-26,"perdas":26,"reestruturacao":0,"necessidade":26},"geometry":{"type":"Point","coordinates":[-38.60799,-3.764163]}},{"type":"Feature","properties":{"batalhao":"18º BPM","numero":18,"sede":"Fortaleza","ancora":"Antônio Bezerra","tipo_ancora":"bairro oficial de Fortaleza","localidades_referencia":["Antônio Bezerra","Parquelândia"],"municipios_cobertos":["Fortaleza"],"quantidade_municipios":1,"crpm":"1º CRPM","efetivo":384,"companhias":2,"exoneracoes":3,"demissoes":11,"requeridas_2025":8,"requeridas_2026":2,"requeridas":10,"movimentacoes":-32,"situacao":-56,"perdas":56,"reestruturacao":0,"necessidade":56},"geometry":{"type":"Point","coordinates":[-38.592122,-3.739817]}},{"type":"Feature","properties":{"batalhao":"19º BPM","numero":19,"sede":"Fortaleza","ancora":"Cambeba","tipo_ancora":"bairro oficial de Fortaleza","localidades_referencia":["Cambeba","Aerolândia"],"municipios_cobertos":["Fortaleza"],"quantidade_municipios":1,"crpm":"5º CRPM","efetivo":455,"companhias":3,"exoneracoes":4,"demissoes":8,"requeridas_2025":5,"requeridas_2026":3,"requeridas":8,"movimentacoes":5,"situacao":-15,"perdas":15,"reestruturacao":0,"necessidade":15},"geometry":{"type":"Point","coordinates":[-38.483934,-3.806312]}},{"type":"Feature","properties":{"batalhao":"20º BPM","numero":20,"sede":"Fortaleza","ancora":"Pirambu","tipo_ancora":"bairro oficial de Fortaleza","localidades_referencia":["Pirambu","Barra do Ceará"],"municipios_cobertos":["Fortaleza"],"quantidade_municipios":1,"crpm":"1º CRPM","efetivo":400,"companhias":3,"exoneracoes":3,"demissoes":8,"requeridas_2025":9,"requeridas_2026":3,"requeridas":12,"movimentacoes":-24,"situacao":-47,"perdas":47,"reestruturacao":0,"necessidade":47},"geometry":{"type":"Point","coordinates":[-38.554889,-3.70917]}},{"type":"Feature","properties":{"batalhao":"21º BPM","numero":21,"sede":"Fortaleza","ancora":"Conjunto Esperança","tipo_ancora":"bairro oficial de Fortaleza","localidades_referencia":["Conjunto Esperança","Maraponga"],"municipios_cobertos":["Fortaleza"],"quantidade_municipios":1,"crpm":"1º CRPM","efetivo":360,"companhias":2,"exoneracoes":1,"demissoes":5,"requeridas_2025":9,"requeridas_2026":3,"requeridas":12,"movimentacoes":-30,"situacao":-48,"perdas":48,"reestruturacao":0,"necessidade":48},"geometry":{"type":"Point","coordinates":[-38.591846,-3.814029]}},{"type":"Feature","properties":{"batalhao":"22º BPM","numero":22,"sede":"Fortaleza","ancora":"Papicu","tipo_ancora":"bairro oficial de Fortaleza","localidades_referencia":["Papicu","Dionísio Torres"],"municipios_cobertos":["Fortaleza"],"quantidade_municipios":1,"crpm":"5º CRPM","efetivo":254,"companhias":2,"exoneracoes":1,"demissoes":4,"requeridas_2025":4,"requeridas_2026":3,"requeridas":7,"movimentacoes":-22,"situacao":-34,"perdas":34,"reestruturacao":0,"necessidade":34},"geometry":{"type":"Point","coordinates":[-38.476703,-3.740014]}},{"type":"Feature","properties":{"batalhao":"23º BPM","numero":23,"sede":"Paraipaba","ancora":"Paraipaba","tipo_ancora":"município-sede","localidades_referencia":["Paraipaba","São Gonçalo do Amarante"],"municipios_cobertos":["Paracuru","Paraipaba","São Goncalo do Amarante","São Luís do Curu","Trairi"],"quantidade_municipios":5,"crpm":"2º CRPM","efetivo":326,"companhias":4,"exoneracoes":1,"demissoes":6,"requeridas_2025":7,"requeridas_2026":3,"requeridas":10,"movimentacoes":-5,"situacao":-22,"perdas":22,"reestruturacao":0,"necessidade":22},"geometry":{"type":"Point","coordinates":[-39.181708,-3.42469]}},{"type":"Feature","properties":{"batalhao":"24º BPM","numero":24,"sede":"Maranguape","ancora":"Maranguape","tipo_ancora":"município-sede","localidades_referencia":["Maranguape","Pacatuba"],"municipios_cobertos":["Guaiúba","Maranguape","Pacatuba"],"quantidade_municipios":3,"crpm":"6º CRPM","efetivo":324,"companhias":2,"exoneracoes":1,"demissoes":9,"requeridas_2025":9,"requeridas_2026":7,"requeridas":16,"movimentacoes":-10,"situacao":-36,"perdas":36,"reestruturacao":0,"necessidade":36},"geometry":{"type":"Point","coordinates":[-38.749788,-3.988439]}},{"type":"Feature","properties":{"batalhao":"25º BPM","numero":25,"sede":"Horizonte","ancora":"Horizonte","tipo_ancora":"município-sede","localidades_referencia":["Horizonte","Pacajus"],"municipios_cobertos":["Chorozinho","Horizonte","Itaitinga","Pacajus"],"quantidade_municipios":4,"crpm":"6º CRPM","efetivo":217,"companhias":2,"exoneracoes":5,"demissoes":3,"requeridas_2025":8,"requeridas_2026":1,"requeridas":9,"movimentacoes":7,"situacao":-10,"perdas":10,"reestruturacao":0,"necessidade":10},"geometry":{"type":"Point","coordinates":[-38.463367,-4.096694]}},{"type":"Feature","properties":{"batalhao":"26º BPM","numero":26,"sede":"Caucaia","ancora":"Jurema","tipo_ancora":"bairro de referência em Caucaia","localidades_referencia":["Jurema","Nova Metrópole"],"municipios_cobertos":["Caucaia"],"quantidade_municipios":1,"crpm":"2º CRPM","efetivo":286,"companhias":2,"exoneracoes":1,"demissoes":6,"requeridas_2025":6,"requeridas_2026":0,"requeridas":6,"movimentacoes":-9,"situacao":-22,"perdas":22,"reestruturacao":39,"necessidade":61},"geometry":{"type":"Point","coordinates":[-38.6358,-3.8355]}},{"type":"Feature","properties":{"batalhao":"27º BPM","numero":27,"sede":"Tianguá","ancora":"Tianguá","tipo_ancora":"município-sede","localidades_referencia":["Tianguá","São Benedito"],"municipios_cobertos":["Carnaubal","Croatá","Guaraciaba do Norte","Ibiapina","São Benedito","Tianguá","Ubajara","Vicosa do Ceará"],"quantidade_municipios":8,"crpm":"3º CRPM","efetivo":212,"companhias":2,"exoneracoes":0,"demissoes":2,"requeridas_2025":9,"requeridas_2026":4,"requeridas":13,"movimentacoes":17,"situacao":2,"perdas":0,"reestruturacao":24,"necessidade":24},"geometry":{"type":"Point","coordinates":[-40.959952,-3.656151]}},{"type":"Feature","properties":{"batalhao":"28º BPM","numero":28,"sede":"Camocim","ancora":"Camocim","tipo_ancora":"município-sede","localidades_referencia":["Camocim","Granja"],"municipios_cobertos":["Barroquinha","Camocim","Chaval","Granja","Martinópole","Moraújo","Uruoca"],"quantidade_municipios":7,"crpm":"3º CRPM","efetivo":173,"companhias":2,"exoneracoes":0,"demissoes":4,"requeridas_2025":9,"requeridas_2026":3,"requeridas":12,"movimentacoes":33,"situacao":17,"perdas":0,"reestruturacao":63,"necessidade":63},"geometry":{"type":"Point","coordinates":[-40.790105,-2.968905]}},{"type":"Feature","properties":{"batalhao":"29º BPM","numero":29,"sede":"Baturité","ancora":"Baturité","tipo_ancora":"município-sede","localidades_referencia":["Baturité","Guaramiranga"],"municipios_cobertos":["Acarape","Aracoiaba","Aratuba","Barreira","Baturité","Capistrano","Guaramiranga","Itapiúna","Mulungu","Ocara","Pacoti","Palmácia","Redencão"],"quantidade_municipios":13,"crpm":"7º CRPM","efetivo":240,"companhias":2,"exoneracoes":1,"demissoes":1,"requeridas_2025":16,"requeridas_2026":2,"requeridas":18,"movimentacoes":0,"situacao":-20,"perdas":20,"reestruturacao":28,"necessidade":48},"geometry":{"type":"Point","coordinates":[-38.86931,-4.423349]}},{"type":"Feature","properties":{"batalhao":"30º BPM","numero":30,"sede":"Aracati","ancora":"Aracati","tipo_ancora":"município-sede","localidades_referencia":["Aracati","Beberibe"],"municipios_cobertos":["Aracati","Beberibe","Fortim","Icapuí","Itaicaba","Palhano"],"quantidade_municipios":6,"crpm":"8º CRPM","efetivo":187,"companhias":2,"exoneracoes":1,"demissoes":1,"requeridas_2025":13,"requeridas_2026":1,"requeridas":14,"movimentacoes":17,"situacao":1,"perdas":0,"reestruturacao":35,"necessidade":35},"geometry":{"type":"Point","coordinates":[-37.676049,-4.677491]}},{"type":"Feature","properties":{"batalhao":"31º BPM","numero":31,"sede":"Jaguaribe","ancora":"Jaguaribe","tipo_ancora":"município-sede","localidades_referencia":["Jaguaribe","Alto Santo"],"municipios_cobertos":["Alto Santo","Ereré","Iracema","Jaguaribara","Jaguaribe","Pereiro","Potiretama"],"quantidade_municipios":7,"crpm":"8º CRPM","efetivo":161,"companhias":2,"exoneracoes":2,"demissoes":0,"requeridas_2025":1,"requeridas_2026":0,"requeridas":1,"movimentacoes":29,"situacao":26,"perdas":0,"reestruturacao":51,"necessidade":51},"geometry":{"type":"Point","coordinates":[-38.729013,-5.977847]}},{"type":"Feature","properties":{"batalhao":"32º BPM","numero":32,"sede":"Brejo Santo","ancora":"Brejo Santo","tipo_ancora":"município-sede","localidades_referencia":["Brejo Santo","Mauriti"],"municipios_cobertos":["Abaiara","Barro","Brejo Santo","Jati","Mauriti","Milagres","Penaforte","Porteiras"],"quantidade_municipios":8,"crpm":"4º CRPM","efetivo":222,"companhias":2,"exoneracoes":0,"demissoes":1,"requeridas_2025":9,"requeridas_2026":1,"requeridas":10,"movimentacoes":25,"situacao":14,"perdas":0,"reestruturacao":44,"necessidade":44},"geometry":{"type":"Point","coordinates":[-38.916229,-7.568603]}},{"type":"Feature","properties":{"batalhao":"33º BPM","numero":33,"sede":"Campos Sales","ancora":"Campos Sales","tipo_ancora":"município-sede","localidades_referencia":["Campos Sales","Assaré"],"municipios_cobertos":["Altaneira","Antonina do Norte","Araripe","Assaré","Campos Sales","Potengi","Salitre"],"quantidade_municipios":7,"crpm":"4º CRPM","efetivo":125,"companhias":2,"exoneracoes":1,"demissoes":4,"requeridas_2025":7,"requeridas_2026":2,"requeridas":9,"movimentacoes":22,"situacao":8,"perdas":0,"reestruturacao":71,"necessidade":71},"geometry":{"type":"Point","coordinates":[-40.245237,-6.943053]}},{"type":"Feature","properties":{"batalhao":"34º BPM","numero":34,"sede":"Icó","ancora":"Icó","tipo_ancora":"município-sede","localidades_referencia":["Icó","Várzea Alegre"],"municipios_cobertos":["Baixio","Cedro","Granjeiro","Icó","Ipaumirim","Lavras da Mangabeira","Orós","Umari","Várzea Alegre"],"quantidade_municipios":9,"crpm":"4º CRPM","efetivo":191,"companhias":2,"exoneracoes":5,"demissoes":1,"requeridas_2025":5,"requeridas_2026":3,"requeridas":8,"movimentacoes":73,"situacao":59,"perdas":0,"reestruturacao":55,"necessidade":55},"geometry":{"type":"Point","coordinates":[-38.774564,-6.358654]}}]}